<?xml version="1.0" encoding="UTF-8"?>
<ndm xmlns:xsi="http://www.w3.org/2001/XMLSchema-instance" xsi:noNamespaceSchemaLocation="https://sanaregistry.org/r/ndmxml_unqualified/ndmxml-2.0.0-master-2.0.xsd">
<omm id="CCSDS_OMM_VERS" version="2.0">
<header><CREATION_DATE/><ORIGINATOR/></header><body><segment><metadata><OBJECT_NAME>KUIPER-00044</OBJECT_NAME><OBJECT_ID>2025-134F</OBJECT_ID><CENTER_NAME>EARTH</CENTER_NAME><REF_FRAME>TEME</REF_FRAME><TIME_SYSTEM>UTC</TIME_SYSTEM><MEAN_ELEMENT_THEORY>SGP4</MEAN_ELEMENT_THEORY></metadata><data><meanElements><EPOCH>2025-12-06T06:55:48.012096</EPOCH><MEAN_MOTION>14.79904555</MEAN_MOTION><ECCENTRICITY>.00108081</ECCENTRICITY><INCLINATION>51.9017</INCLINATION><RA_OF_ASC_NODE>299.6098</RA_OF_ASC_NODE><ARG_OF_PERICENTER>323.7230</ARG_OF_PERICENTER><MEAN_ANOMALY>36.2999</MEAN_ANOMALY></meanElements><tleParameters><EPHEMERIS_TYPE>0</EPHEMERIS_TYPE><CLASSIFICATION_TYPE>U</CLASSIFICATION_TYPE><NORAD_CAT_ID>64505</NORAD_CAT_ID><ELEMENT_SET_NO>999</ELEMENT_SET_NO><REV_AT_EPOCH>2605</REV_AT_EPOCH><BSTAR>-.17962979E-2</BSTAR><MEAN_MOTION_DOT>-.13894E-3</MEAN_MOTION_DOT><MEAN_MOTION_DDOT>0</MEAN_MOTION_DDOT></tleParameters></data></segment></body></omm>
<omm id="CCSDS_OMM_VERS" version="2.0">
<header><CREATION_DATE/><ORIGINATOR/></header><body><segment><metadata><OBJECT_NAME>KUIPER-00046</OBJECT_NAME><OBJECT_ID>2025-134G</OBJECT_ID><CENTER_NAME>EARTH</CENTER_NAME><REF_FRAME>TEME</REF_FRAME><TIME_SYSTEM>UTC</TIME_SYSTEM><MEAN_ELEMENT_THEORY>SGP4</MEAN_ELEMENT_THEORY></metadata><data><meanElements><EPOCH>2025-12-05T14:41:33.826848</EPOCH><MEAN_MOTION>14.80460938</MEAN_MOTION><ECCENTRICITY>.00122859</ECCENTRICITY><INCLINATION>51.9002</INCLINATION><RA_OF_ASC_NODE>299.0129</RA_OF_ASC_NODE><ARG_OF_PERICENTER>333.7656</ARG_OF_PERICENTER><MEAN_ANOMALY>26.2683</MEAN_ANOMALY></meanElements><tleParameters><EPHEMERIS_TYPE>0</EPHEMERIS_TYPE><CLASSIFICATION_TYPE>U</CLASSIFICATION_TYPE><NORAD_CAT_ID>64506</NORAD_CAT_ID><ELEMENT_SET_NO>999</ELEMENT_SET_NO><REV_AT_EPOCH>2600</REV_AT_EPOCH><BSTAR>.15117541E-2</BSTAR><MEAN_MOTION_DOT>.1148E-3</MEAN_MOTION_DOT><MEAN_MOTION_DDOT>0</MEAN_MOTION_DDOT></tleParameters></data></segment></body></omm>
<omm id="CCSDS_OMM_VERS" version="2.0">
<header><CREATION_DATE/><ORIGINATOR/></header><body><segment><metadata><OBJECT_NAME>KUIPER-00047</OBJECT_NAME><OBJECT_ID>2025-134H</OBJECT_ID><CENTER_NAME>EARTH</CENTER_NAME><REF_FRAME>TEME</REF_FRAME><TIME_SYSTEM>UTC</TIME_SYSTEM><MEAN_ELEMENT_THEORY>SGP4</MEAN_ELEMENT_THEORY></metadata><data><meanElements><EPOCH>2025-12-06T05:06:55.305504</EPOCH><MEAN_MOTION>14.82903114</MEAN_MOTION><ECCENTRICITY>.00083556</ECCENTRICITY><INCLINATION>51.8994</INCLINATION><RA_OF_ASC_NODE>268.1423</RA_OF_ASC_NODE><ARG_OF_PERICENTER>351.6168</ARG_OF_PERICENTER><MEAN_ANOMALY>8.4655</MEAN_ANOMALY></meanElements><tleParameters><EPHEMERIS_TYPE>0</EPHEMERIS_TYPE><CLASSIFICATION_TYPE>U</CLASSIFICATION_TYPE><NORAD_CAT_ID>64507</NORAD_CAT_ID><ELEMENT_SET_NO>999</ELEMENT_SET_NO><REV_AT_EPOCH>2648</REV_AT_EPOCH><BSTAR>.10816938E-2</BSTAR><MEAN_MOTION_DOT>.8642E-4</MEAN_MOTION_DOT><MEAN_MOTION_DDOT>0</MEAN_MOTION_DDOT></tleParameters></data></segment></body></omm>
<omm id="CCSDS_OMM_VERS" version="2.0">
<header><CREATION_DATE/><ORIGINATOR/></header><body><segment><metadata><OBJECT_NAME>KUIPER-00048</OBJECT_NAME><OBJECT_ID>2025-134J</OBJECT_ID><CENTER_NAME>EARTH</CENTER_NAME><REF_FRAME>TEME</REF_FRAME><TIME_SYSTEM>UTC</TIME_SYSTEM><MEAN_ELEMENT_THEORY>SGP4</MEAN_ELEMENT_THEORY></metadata><data><meanElements><EPOCH>2025-12-06T04:30:17.591040</EPOCH><MEAN_MOTION>14.79928162</MEAN_MOTION><ECCENTRICITY>.00034328</ECCENTRICITY><INCLINATION>51.9016</INCLINATION><RA_OF_ASC_NODE>269.0492</RA_OF_ASC_NODE><ARG_OF_PERICENTER>104.6394</ARG_OF_PERICENTER><MEAN_ANOMALY>255.4949</MEAN_ANOMALY></meanElements><tleParameters><EPHEMERIS_TYPE>0</EPHEMERIS_TYPE><CLASSIFICATION_TYPE>U</CLASSIFICATION_TYPE><NORAD_CAT_ID>64508</NORAD_CAT_ID><ELEMENT_SET_NO>999</ELEMENT_SET_NO><REV_AT_EPOCH>2647</REV_AT_EPOCH><BSTAR>-.24438782E-3</BSTAR><MEAN_MOTION_DOT>-.2084E-4</MEAN_MOTION_DOT><MEAN_MOTION_DDOT>0</MEAN_MOTION_DDOT></tleParameters></data></segment></body></omm>
<omm id="CCSDS_OMM_VERS" version="2.0">
<header><CREATION_DATE/><ORIGINATOR/></header><body><segment><metadata><OBJECT_NAME>KUIPER-00049</OBJECT_NAME><OBJECT_ID>2025-134K</OBJECT_ID><CENTER_NAME>EARTH</CENTER_NAME><REF_FRAME>TEME</REF_FRAME><TIME_SYSTEM>UTC</TIME_SYSTEM><MEAN_ELEMENT_THEORY>SGP4</MEAN_ELEMENT_THEORY></metadata><data><meanElements><EPOCH>2025-12-06T05:45:50.241312</EPOCH><MEAN_MOTION>14.79991250</MEAN_MOTION><ECCENTRICITY>.00029023</ECCENTRICITY><INCLINATION>51.9004</INCLINATION><RA_OF_ASC_NODE>282.2864</RA_OF_ASC_NODE><ARG_OF_PERICENTER>352.9489</ARG_OF_PERICENTER><MEAN_ANOMALY>7.1432</MEAN_ANOMALY></meanElements><tleParameters><EPHEMERIS_TYPE>0</EPHEMERIS_TYPE><CLASSIFICATION_TYPE>U</CLASSIFICATION_TYPE><NORAD_CAT_ID>64509</NORAD_CAT_ID><ELEMENT_SET_NO>999</ELEMENT_SET_NO><REV_AT_EPOCH>2629</REV_AT_EPOCH><BSTAR>.14900216E-2</BSTAR><MEAN_MOTION_DOT>.11172E-3</MEAN_MOTION_DOT><MEAN_MOTION_DDOT>0</MEAN_MOTION_DDOT></tleParameters></data></segment></body></omm>
<omm id="CCSDS_OMM_VERS" version="2.0">
<header><CREATION_DATE/><ORIGINATOR/></header><body><segment><metadata><OBJECT_NAME>KUIPER-00050</OBJECT_NAME><OBJECT_ID>2025-134L</OBJECT_ID><CENTER_NAME>EARTH</CENTER_NAME><REF_FRAME>TEME</REF_FRAME><TIME_SYSTEM>UTC</TIME_SYSTEM><MEAN_ELEMENT_THEORY>SGP4</MEAN_ELEMENT_THEORY></metadata><data><meanElements><EPOCH>2025-12-06T05:36:32.924160</EPOCH><MEAN_MOTION>14.96540912</MEAN_MOTION><ECCENTRICITY>.00048663</ECCENTRICITY><INCLINATION>51.8916</INCLINATION><RA_OF_ASC_NODE>276.5506</RA_OF_ASC_NODE><ARG_OF_PERICENTER>18.1577</ARG_OF_PERICENTER><MEAN_ANOMALY>341.9565</MEAN_ANOMALY></meanElements><tleParameters><EPHEMERIS_TYPE>0</EPHEMERIS_TYPE><CLASSIFICATION_TYPE>U</CLASSIFICATION_TYPE><NORAD_CAT_ID>64510</NORAD_CAT_ID><ELEMENT_SET_NO>999</ELEMENT_SET_NO><REV_AT_EPOCH>2637</REV_AT_EPOCH><BSTAR>.11944379E-2</BSTAR><MEAN_MOTION_DOT>.13501E-3</MEAN_MOTION_DOT><MEAN_MOTION_DDOT>0</MEAN_MOTION_DDOT></tleParameters></data></segment></body></omm>
<omm id="CCSDS_OMM_VERS" version="2.0">
<header><CREATION_DATE/><ORIGINATOR/></header><body><segment><metadata><OBJECT_NAME>KUIPER-00051</OBJECT_NAME><OBJECT_ID>2025-134M</OBJECT_ID><CENTER_NAME>EARTH</CENTER_NAME><REF_FRAME>TEME</REF_FRAME><TIME_SYSTEM>UTC</TIME_SYSTEM><MEAN_ELEMENT_THEORY>SGP4</MEAN_ELEMENT_THEORY></metadata><data><meanElements><EPOCH>2025-12-06T05:49:42.367872</EPOCH><MEAN_MOTION>14.79884439</MEAN_MOTION><ECCENTRICITY>.00016362</ECCENTRICITY><INCLINATION>51.9029</INCLINATION><RA_OF_ASC_NODE>279.8420</RA_OF_ASC_NODE><ARG_OF_PERICENTER>10.7636</ARG_OF_PERICENTER><MEAN_ANOMALY>349.3361</MEAN_ANOMALY></meanElements><tleParameters><EPHEMERIS_TYPE>0</EPHEMERIS_TYPE><CLASSIFICATION_TYPE>U</CLASSIFICATION_TYPE><NORAD_CAT_ID>64511</NORAD_CAT_ID><ELEMENT_SET_NO>999</ELEMENT_SET_NO><REV_AT_EPOCH>2632</REV_AT_EPOCH><BSTAR>-.19196287E-2</BSTAR><MEAN_MOTION_DOT>-.14806E-3</MEAN_MOTION_DOT><MEAN_MOTION_DDOT>0</MEAN_MOTION_DDOT></tleParameters></data></segment></body></omm>
<omm id="CCSDS_OMM_VERS" version="2.0">
<header><CREATION_DATE/><ORIGINATOR/></header><body><segment><metadata><OBJECT_NAME>KUIPER-00052</OBJECT_NAME><OBJECT_ID>2025-134N</OBJECT_ID><CENTER_NAME>EARTH</CENTER_NAME><REF_FRAME>TEME</REF_FRAME><TIME_SYSTEM>UTC</TIME_SYSTEM><MEAN_ELEMENT_THEORY>SGP4</MEAN_ELEMENT_THEORY></metadata><data><meanElements><EPOCH>2025-12-06T08:00:01.999872</EPOCH><MEAN_MOTION>15.70405452</MEAN_MOTION><ECCENTRICITY>.00044236</ECCENTRICITY><INCLINATION>51.8623</INCLINATION><RA_OF_ASC_NODE>227.3627</RA_OF_ASC_NODE><ARG_OF_PERICENTER>75.7372</ARG_OF_PERICENTER><MEAN_ANOMALY>238.5716</MEAN_ANOMALY></meanElements><tleParameters><EPHEMERIS_TYPE>0</EPHEMERIS_TYPE><CLASSIFICATION_TYPE>U</CLASSIFICATION_TYPE><NORAD_CAT_ID>64512</NORAD_CAT_ID><ELEMENT_SET_NO>999</ELEMENT_SET_NO><REV_AT_EPOCH>534</REV_AT_EPOCH><BSTAR>-.94351307E-4</BSTAR><MEAN_MOTION_DOT>-.12373E-3</MEAN_MOTION_DOT><MEAN_MOTION_DDOT>0</MEAN_MOTION_DDOT></tleParameters></data></segment></body></omm>

</ndm>
