KUIPER-00044            
1 64505U 25134F   25340.28875014 -.00013894  00000+0 -17963-2 0  9998
2 64505  51.9017 299.6098 0010808 323.7230  36.2999 14.79904555 26055
KUIPER-00046            
1 64506U 25134G   25339.61219707  .00011480  00000+0  15118-2 0  9992
2 64506  51.9002 299.0129 0012285 333.7656  26.2683 14.80460938 26001
KUIPER-00047            
1 64507U 25134H   25340.21314011  .00008642  00000+0  10817-2 0  9992
2 64507  51.8994 268.1423 0008355 351.6168   8.4655 14.82903114 26488
KUIPER-00048            
1 64508U 25134J   25340.18770360 -.00002084  00000+0 -24439-3 0  9994
2 64508  51.9016 269.0492 0003432 104.6394 255.4949 14.79928162 26474
KUIPER-00049            
1 64509U 25134K   25340.24016483  .00011172  00000+0  14900-2 0  9998
2 64509  51.9004 282.2864 0002902 352.9489   7.1432 14.79991250 26293
KUIPER-00050            
1 64510U 25134L   25340.23371440  .00013501  00000+0  11944-2 0  9999
2 64510  51.8916 276.5506 0004866  18.1577 341.9565 14.96540912 26374
KUIPER-00051            
1 64511U 25134M   25340.24285148 -.00014806  00000+0 -19196-2 0  9998
2 64511  51.9029 279.8420 0001636  10.7636 349.3361 14.79884439 26325
KUIPER-00052            
1 64512U 25134N   25340.33335648 -.00012373  00000+0 -94351-4 0  9995
2 64512  51.8623 227.3627 0004423  75.7372 238.5716 15.70405452  5345
